STARLINK-31916          
1 59795U 24093P   26068.41689169  .00000055  00000+0  11522-4 0  9993
2 59795  43.0034 210.4390 0001198 249.4006 110.6718 15.27560366102653
NUSAT-48 (HENRIETTA LE*)
1 60498U 24149AG  26068.80506098  .00012988  00000+0  45212-3 0  9999
2 60498  97.3923 150.8264 0002754 263.3026  96.7901 15.29812597 86946
